QIANFAN-73              
1 63159U 25046A   25215.88088337  .00000132  00000+0  18548-3 0  9995
2 63159  88.9859 333.5076 0016570 138.2227 222.0192 13.50959045 29745
QIANFAN-74              
1 63160U 25046B   25215.93853083  .00000144  00000+0  20395-3 0  9997
2 63160  88.9859 333.3903 0001954 103.0956 257.0413 13.50963641 29812
QIANFAN-75              
1 63161U 25046C   25215.85214229  .00000125  00000+0  17486-3 0  9998
2 63161  88.9860 333.6309 0017688 141.3824 218.8596 13.50959994 29675
QIANFAN-76              
1 63162U 25046D   25215.84785986  .00000148  00000+0  21068-3 0  9997
2 63162  88.9860 333.6125 0015248 141.3510 218.8736 13.50956165 29688
QIANFAN-77              
1 63163U 25046E   25215.95081236  .00000331  00000+0  23134-3 0  9997
2 63163  88.9857 332.6811 0016726 125.7561 234.5174 13.96006873 30203
QIANFAN-78              
1 63164U 25046F   25215.88913996  .00000138  00000+0  19518-3 0  9993
2 63164  88.9858 333.4737 0016570 143.7549 216.4728 13.50959454 29769
QIANFAN-79              
1 63165U 25046G   25215.91785730  .00000151  00000+0  21491-3 0  9999
2 63165  88.9862 333.5732 0016288 142.0488 218.1815 13.50961647 29719
QIANFAN-80              
1 63166U 25046H   25215.93442952  .00000143  00000+0  20227-3 0  9995
2 63166  88.9860 333.2820 0015195 145.6241 214.5897 13.50961822 29877
